{
  "links" : {
    "next" : "https://api.nasa.gov/neo/rest/v1/feed?start_date=1997-12-09&end_date=1997-12-09&detailed=true&api_key=t0TVs3DtDT2H8Oy2Zy8m2eVrNsAVKAexjcZXUckd",
    "prev" : "https://api.nasa.gov/neo/rest/v1/feed?start_date=1997-12-07&end_date=1997-12-07&detailed=true&api_key=t0TVs3DtDT2H8Oy2Zy8m2eVrNsAVKAexjcZXUckd",
    "self" : "https://api.nasa.gov/neo/rest/v1/feed?start_date=1997-12-08&end_date=1997-12-08&detailed=true&api_key=t0TVs3DtDT2H8Oy2Zy8m2eVrNsAVKAexjcZXUckd"
  },
  "element_count" : 4,
  "near_earth_objects" : {
    "1997-12-08" : [ {
      "links" : {
        "self" : "https://api.nasa.gov/neo/rest/v1/neo/2136818?api_key=t0TVs3DtDT2H8Oy2Zy8m2eVrNsAVKAexjcZXUckd"
      },
      "neo_reference_id" : "2136818",
      "name" : "136818 Selqet (1997 MW1)",
      "nasa_jpl_url" : "http://ssd.jpl.nasa.gov/sbdb.cgi?sstr=2136818",
      "absolute_magnitude_h" : 18.9,
      "estimated_diameter" : {
        "kilometers" : {
          "estimated_diameter_min" : 0.4411182,
          "estimated_diameter_max" : 0.9863702813
        },
        "meters" : {
          "estimated_diameter_min" : 441.1181999969,
          "estimated_diameter_max" : 986.3702813054
        },
        "miles" : {
          "estimated_diameter_min" : 0.2740980571,
          "estimated_diameter_max" : 0.6129018881
        },
        "feet" : {
          "estimated_diameter_min" : 1447.2382352778,
          "estimated_diameter_max" : 3236.1230737181
        }
      },
      "is_potentially_hazardous_asteroid" : false,
      "close_approach_data" : [ {
        "close_approach_date" : "1997-12-08",
        "epoch_date_close_approach" : 881568000000,
        "relative_velocity" : {
          "kilometers_per_second" : "15.0774129757",
          "kilometers_per_hour" : "54278.6867124401",
          "miles_per_hour" : "33726.6650852937"
        },
        "miss_distance" : {
          "astronomical" : "0.3542047002",
          "lunar" : "137.7856292725",
          "kilometers" : "52988272",
          "miles" : "32925386"
        },
        "orbiting_body" : "Earth"
      } ],
      "orbital_data" : {
        "orbit_id" : "97",
        "orbit_determination_date" : "2017-09-27 06:51:50",
        "orbit_uncertainty" : "0",
        "minimum_orbit_intersection" : ".113543",
        "jupiter_tisserand_invariant" : "6.326",
        "epoch_osculation" : "2458000.5",
        "eccentricity" : ".3462912345976584",
        "semi_major_axis" : ".9375804265711696",
        "inclination" : "12.77833710327869",
        "ascending_node_longitude" : "259.9517694521273",
        "orbital_period" : "331.5974828563657",
        "perihelion_distance" : ".6129045431192401",
        "perihelion_argument" : "203.7846993891176",
        "aphelion_distance" : "1.262256310023099",
        "perihelion_time" : "2458099.877786882534",
        "mean_anomaly" : "252.11014821482",
        "mean_motion" : "1.085653596942221",
        "equinox" : "J2000"
      }
    }, {
      "links" : {
        "self" : "https://api.nasa.gov/neo/rest/v1/neo/3440319?api_key=t0TVs3DtDT2H8Oy2Zy8m2eVrNsAVKAexjcZXUckd"
      },
      "neo_reference_id" : "3440319",
      "name" : "(2008 WK60)",
      "nasa_jpl_url" : "http://ssd.jpl.nasa.gov/sbdb.cgi?sstr=3440319",
      "absolute_magnitude_h" : 22.4,
      "estimated_diameter" : {
        "kilometers" : {
          "estimated_diameter_min" : 0.0880146521,
          "estimated_diameter_max" : 0.1968067451
        },
        "meters" : {
          "estimated_diameter_min" : 88.0146520901,
          "estimated_diameter_max" : 196.8067450894
        },
        "miles" : {
          "estimated_diameter_min" : 0.0546897524,
          "estimated_diameter_max" : 0.122290004
        },
        "feet" : {
          "estimated_diameter_min" : 288.7619911632,
          "estimated_diameter_max" : 645.6914415591
        }
      },
      "is_potentially_hazardous_asteroid" : false,
      "close_approach_data" : [ {
        "close_approach_date" : "1997-12-08",
        "epoch_date_close_approach" : 881568000000,
        "relative_velocity" : {
          "kilometers_per_second" : "8.2494773825",
          "kilometers_per_hour" : "29698.1185768454",
          "miles_per_hour" : "18453.2559568182"
        },
        "miss_distance" : {
          "astronomical" : "0.0186398965",
          "lunar" : "7.250919342",
          "kilometers" : "2788488.75",
          "miles" : "1732686.625"
        },
        "orbiting_body" : "Earth"
      } ],
      "orbital_data" : {
        "orbit_id" : "10",
        "orbit_determination_date" : "2017-04-06 09:02:05",
        "orbit_uncertainty" : "8",
        "minimum_orbit_intersection" : ".0171372",
        "jupiter_tisserand_invariant" : "7.401",
        "epoch_osculation" : "2454797.5",
        "eccentricity" : ".3203132708114461",
        "semi_major_axis" : ".7794752904260915",
        "inclination" : "8.484854472320933",
        "ascending_node_longitude" : "81.50361385809862",
        "orbital_period" : "251.3633499377095",
        "perihelion_distance" : ".5297990106330083",
        "perihelion_argument" : "146.397235667421",
        "aphelion_distance" : "1.029151570219175",
        "perihelion_time" : "2454902.890482617446",
        "mean_anomaly" : "209.0608366268088",
        "mean_motion" : "1.432189697062885",
        "equinox" : "J2000"
      }
    }, {
      "links" : {
        "self" : "https://api.nasa.gov/neo/rest/v1/neo/3760684?api_key=t0TVs3DtDT2H8Oy2Zy8m2eVrNsAVKAexjcZXUckd"
      },
      "neo_reference_id" : "3760684",
      "name" : "(2016 TR54)",
      "nasa_jpl_url" : "http://ssd.jpl.nasa.gov/sbdb.cgi?sstr=3760684",
      "absolute_magnitude_h" : 21.9,
      "estimated_diameter" : {
        "kilometers" : {
          "estimated_diameter_min" : 0.1108038821,
          "estimated_diameter_max" : 0.2477650126
        },
        "meters" : {
          "estimated_diameter_min" : 110.8038821264,
          "estimated_diameter_max" : 247.7650126055
        },
        "miles" : {
          "estimated_diameter_min" : 0.068850319,
          "estimated_diameter_max" : 0.1539539936
        },
        "feet" : {
          "estimated_diameter_min" : 363.5298086356,
          "estimated_diameter_max" : 812.8773639568
        }
      },
      "is_potentially_hazardous_asteroid" : true,
      "close_approach_data" : [ {
        "close_approach_date" : "1997-12-08",
        "epoch_date_close_approach" : 881568000000,
        "relative_velocity" : {
          "kilometers_per_second" : "27.6690750572",
          "kilometers_per_hour" : "99608.6702060888",
          "miles_per_hour" : "61892.9539955556"
        },
        "miss_distance" : {
          "astronomical" : "0.429818679",
          "lunar" : "167.1994628906",
          "kilometers" : "64299960",
          "miles" : "39954144"
        },
        "orbiting_body" : "Earth"
      } ],
      "orbital_data" : {
        "orbit_id" : "7",
        "orbit_determination_date" : "2017-09-19 06:49:01",
        "orbit_uncertainty" : "2",
        "minimum_orbit_intersection" : ".0188042",
        "jupiter_tisserand_invariant" : "6.104",
        "epoch_osculation" : "2458000.5",
        "eccentricity" : ".4499654182293195",
        "semi_major_axis" : ".9748304255346387",
        "inclination" : "7.610480285675918",
        "ascending_node_longitude" : "101.7104442462656",
        "orbital_period" : "351.5539971239855",
        "perihelion_distance" : ".5361904454062796",
        "perihelion_argument" : "108.9971347960098",
        "aphelion_distance" : "1.413470405662998",
        "perihelion_time" : "2457876.997853422516",
        "mean_anomaly" : "126.4692568755343",
        "mean_motion" : "1.024024767020458",
        "equinox" : "J2000"
      }
    }, {
      "links" : {
        "self" : "https://api.nasa.gov/neo/rest/v1/neo/3673545?api_key=t0TVs3DtDT2H8Oy2Zy8m2eVrNsAVKAexjcZXUckd"
      },
      "neo_reference_id" : "3673545",
      "name" : "(2014 LW14)",
      "nasa_jpl_url" : "http://ssd.jpl.nasa.gov/sbdb.cgi?sstr=3673545",
      "absolute_magnitude_h" : 21.5,
      "estimated_diameter" : {
        "kilometers" : {
          "estimated_diameter_min" : 0.1332155667,
          "estimated_diameter_max" : 0.2978790628
        },
        "meters" : {
          "estimated_diameter_min" : 133.2155666981,
          "estimated_diameter_max" : 297.8790627982
        },
        "miles" : {
          "estimated_diameter_min" : 0.0827762899,
          "estimated_diameter_max" : 0.1850934111
        },
        "feet" : {
          "estimated_diameter_min" : 437.0589598459,
          "estimated_diameter_max" : 977.2935443908
        }
      },
      "is_potentially_hazardous_asteroid" : false,
      "close_approach_data" : [ {
        "close_approach_date" : "1997-12-08",
        "epoch_date_close_approach" : 881568000000,
        "relative_velocity" : {
          "kilometers_per_second" : "11.3072276284",
          "kilometers_per_hour" : "40706.0194621457",
          "miles_per_hour" : "25293.1374819094"
        },
        "miss_distance" : {
          "astronomical" : "0.1254696238",
          "lunar" : "48.8076858521",
          "kilometers" : "18769988",
          "miles" : "11663130"
        },
        "orbiting_body" : "Earth"
      } ],
      "orbital_data" : {
        "orbit_id" : "8",
        "orbit_determination_date" : "2017-04-06 08:40:09",
        "orbit_uncertainty" : "4",
        "minimum_orbit_intersection" : ".0728584",
        "jupiter_tisserand_invariant" : "5.006",
        "epoch_osculation" : "2458000.5",
        "eccentricity" : ".3673559441002549",
        "semi_major_axis" : "1.262389477394794",
        "inclination" : "15.19873757687847",
        "ascending_node_longitude" : "77.51523434009853",
        "orbital_period" : "518.0700374525765",
        "perihelion_distance" : ".7986431991042022",
        "perihelion_argument" : "309.9179981143233",
        "aphelion_distance" : "1.726135755685386",
        "perihelion_time" : "2458006.810876991479",
        "mean_anomaly" : "355.6146552537494",
        "mean_motion" : ".6948867411251398",
        "equinox" : "J2000"
      }
    } ]
  }
}